{
    "links": {
        "self": "http://www.neowsapp.com/rest/v1/neo/3766174?api_key=iIulBulltgU6a56xZRHN4H3l9WmuAYTsLGpBGhQ2"
    },
    "id": "3766174",
    "neo_reference_id": "3766174",
    "name": "(2016 YG8)",
    "designation": "2016 YG8",
    "nasa_jpl_url": "http://ssd.jpl.nasa.gov/sbdb.cgi?sstr=3766174",
    "absolute_magnitude_h": 21.9,
    "estimated_diameter": {
        "kilometers": {
            "estimated_diameter_min": 0.1108038821,
            "estimated_diameter_max": 0.2477650126
        },
        "meters": {
            "estimated_diameter_min": 110.8038821264,
            "estimated_diameter_max": 247.7650126055
        },
        "miles": {
            "estimated_diameter_min": 0.068850319,
            "estimated_diameter_max": 0.1539539936
        },
        "feet": {
            "estimated_diameter_min": 363.5298086356,
            "estimated_diameter_max": 812.8773639568
        }
    },
    "is_potentially_hazardous_asteroid": false,
    "close_approach_data": [
        {
            "close_approach_date": "2016-11-29",
            "close_approach_date_full": "2016-Nov-29 15:32",
            "epoch_date_close_approach": 1480433520000,
            "relative_velocity": {
                "kilometers_per_second": "5.6704834785",
                "kilometers_per_hour": "20413.7405226157",
                "miles_per_hour": "12684.3044930664"
            },
            "miss_distance": {
                "astronomical": "0.4373774013",
                "lunar": "170.1398091057",
                "kilometers": "65430727.620615231",
                "miles": "40656768.8640269478"
            },
            "orbiting_body": "Earth"
        }
    ],
    "orbital_data": {
        "orbit_id": "3",
        "orbit_determination_date": "2017-04-06 08:21:18",
        "first_observation_date": "2016-12-23",
        "last_observation_date": "2017-01-06",
        "data_arc_in_days": 14,
        "observations_used": 14,
        "orbit_uncertainty": "7",
        "minimum_orbit_intersection": ".434565",
        "jupiter_tisserand_invariant": "3.942",
        "epoch_osculation": "2459000.5",
        "eccentricity": ".2892881423409226",
        "semi_major_axis": "1.820081090722063",
        "inclination": "16.97619426296706",
        "ascending_node_longitude": "125.9324078760309",
        "orbital_period": "896.8804003244452",
        "perihelion_distance": "1.293553213077237",
        "perihelion_argument": "279.6888379398779",
        "aphelion_distance": "2.346608968366888",
        "perihelion_time": "2458593.287579145629",
        "mean_anomaly": "163.4515276000483",
        "mean_motion": ".4013913113384689",
        "equinox": "J2000",
        "orbit_class": {
            "orbit_class_type": "AMO",
            "orbit_class_description": "Near-Earth asteroid orbits similar to that of 1221 Amor",
            "orbit_class_range": "1.017 AU < q (perihelion) < 1.3 AU"
        }
    },
    "is_sentry_object": false
}